restaurant,city,address1,address2
Ronald O. Perelman Performing Arts Center,New York,Ronald O. Perelman Performing Arts Center,"58 Church Street, New York, NY 10048, United States of America"
81 Leonard Gallery,New York,81 Leonard Gallery,"Leonard Street, New York, NY 10013, United States of America"
9/11 Memorial & Museum,New York,9/11 Memorial & Museum,"180 Greenwich Street, New York, NY 10007, United States of America"
Mmuseumm,New York,Mmuseumm,"4 Cortlandt Alley, New York, NY 10013, United States of America"
The Print Room,New York,The Print Room,"89 Franklin Street, New York, NY 10013, United States of America"
Access Theater,New York,Access Theater,"380 Broadway, New York, NY 10013, United States of America"
Andrew Kreps Gallery,New York,Andrew Kreps Gallery,"22 Cortlandt Alley, New York, NY 10013, United States of America"
David Lewis Gallery,New York,David Lewis Gallery,"57 Walker Street, New York, NY 10013, United States of America"
South Street Seaport Museum,New York,South Street Seaport Museum,"12 Fulton Street, New York, NY 10038, United States of America"
Alexander and Bonin,New York,Alexander and Bonin,"47 Walker Street, New York, NY 10013, United States of America"
Imagination Playground,New York,Imagination Playground,"John Street, New York, NY 10038, United States of America"
iPic Theaters,New York,iPic Theaters,"11 Fulton Street, New York, NY 10038, United States of America"
Roxy Cinema New York,New York,Roxy Cinema New York,"2 6th Avenue, New York, NY 10013, United States of America"
Museum of American Finance,New York,Museum of American Finance,"48 Wall Street, New York, NY 10005, United States of America"
Regal Battery Park,New York,Regal Battery Park,"102 North End Avenue, New York, NY 10282, United States of America"
SLEEPCENTER,New York,SLEEPCENTER,"9 Monroe Street, New York, NY 10002, United States of America"
9/11 Tribute Museum,New York,9/11 Tribute Museum,"92 Greenwich Street, New York, NY 10006, United States of America"
186f Kepler,New York,186f Kepler,"171 Canal Street, New York, NY 10013, United States of America"
Guild Gallery,New York,Guild Gallery,"321 Canal Street, New York, NY 10013, United States of America"
OS NYC,New York,OS NYC,"50 Bowery, New York, NY 10013, United States of America"
No Evil Eye,New York,No Evil Eye,"327 Canal Street, New York, NY 10013, United States of America"
Essex Flowers Gallery,New York,Essex Flowers Gallery,"19 Monroe Street, New York, NY 10002, United States of America"
Martos Gallery,New York,Martos Gallery,"41 Elizabeth Street, New York, NY 10013, United States of America"
Museum of Chinese in America,New York,Museum of Chinese in America,"215 Centre Street, New York, NY 10013, United States of America"
Pier 25 Play Area,New York,Pier 25 Play Area,"Hudson River Park Esplanade, New York, NY 10282, United States of America"
Italian American Museum,New York,Italian American Museum,"155 Mulberry Street, New York, NY 10012, United States of America"
Leslie-Lohman Museum of Art,New York,Leslie-Lohman Museum of Art,"26 Wooster Street, New York, NY 10013, United States of America"
Pier 25—Miniature Golf,New York,Pier 25—Miniature Golf,"Hudson River Park Esplanade, New York, NY 10282, United States of America"
Museum at Eldridge Street,New York,Museum at Eldridge Street,"12 Eldridge Street, New York, NY 10002, United States of America"
Fraunces Tavern Museum,New York,Fraunces Tavern Museum,"54 Pearl Street, New York, NY 10004, United States of America"
Jackie Robinson Museum,New York,Jackie Robinson Museum,"75 Varick Street, New York, NY 10013, United States of America"
Eden Gallery,New York,Eden Gallery,"470 Broome Street, New York, NY 10012, United States of America"
National Museum of the American Indian,New York,National Museum of the American Indian,"Bridge Street, New York, NY 10004, United States of America"
N/A,New York,92 Laight Street,"New York, NY 10005, United States of America"
Chinatown Soup,New York,Chinatown Soup,"16B Orchard Street, New York, NY 10002, United States of America"
FIERMAN,New York,FIERMAN,"127 Henry Street, New York, NY 10002, United States of America"
Skyscraper Museum,New York,Skyscraper Museum,"39 Battery Place, New York, NY 10280, United States of America"
Museum of Jewish Heritage,New York,Museum of Jewish Heritage,"1st Place, New York, NY 10280, United States of America"
Vacation,New York,Vacation,"24 Orchard Street, New York, NY 10002, United States of America"
Miguel Abreu Gallery,New York,Miguel Abreu Gallery,"36 Orchard Street, New York, NY 10002, United States of America"
The Broken Kilometer (DIA),New York,The Broken Kilometer (DIA),"393 West Broadway, New York, NY 10012, United States of America"
SFA Gallery,New York,SFA Gallery,"131 Chrystie Street, New York, NY 10002, United States of America"
Judd Foundation,New York,Judd Foundation,"101 Spring Street, New York, NY 10012, United States of America"
Derek Eller Gallery,New York,Derek Eller Gallery,"300 Broome Street, New York, NY 10002, United States of America"
100 Gates Project,New York,100 Gates Project,"54 Orchard Street, New York, NY 10002, United States of America"
Captain Jacob Joseph Playground,New York,Captain Jacob Joseph Playground,"Henry Street, New York, NY 10002, United States of America"
Reena Spauldings Fine Art,New York,Reena Spauldings Fine Art,"165 East Broadway, New York, NY 10002, United States of America"
Dahesh Museum of Art,New York,Dahesh Museum of Art,"Dominick Street, New York, NY 10005, United States of America"
Pop International Galleries,New York,Pop International Galleries,"195 Bowery, New York, NY 10002, United States of America"
Bargemusic,New York,Bargemusic,"Brooklyn Bridge Park Greenway, New York, NY 11201, United States of America"
